$$SOE
2461302.500000000, A.D. 2026-Sep-19 00:00:00.0000, 5.205716070850609E+09, 4.268158207965389E+09, -1.452420550979403E+09,
2461309.500000000, A.D. 2026-Sep-26 00:00:00.0000, 5.204127601808030E+09, 4.270173619016345E+09, -1.452543048474041E+09,
2461316.500000000, A.D. 2026-Oct-03 00:00:00.0000, 5.202538383249036E+09, 4.272188340656815E+09, -1.452665329572181E+09,
2461323.500000000, A.D. 2026-Oct-10 00:00:00.0000, 5.200948415138361E+09, 4.274202370493023E+09, -1.452787394225756E+09,
2461330.500000000, A.D. 2026-Oct-17 00:00:00.0000, 5.199357697821871E+09, 4.276215705996261E+09, -1.452909242410541E+09,
2461337.500000000, A.D. 2026-Oct-24 00:00:00.0000, 5.197766231964705E+09, 4.278228344475938E+09, -1.453030874128347E+09,
2461344.500000000, A.D. 2026-Oct-31 00:00:00.0000, 5.196174018577658E+09, 4.280240282889903E+09, -1.453152289431247E+09,
2461351.500000000, A.D. 2026-Nov-07 00:00:00.0000, 5.194581059470817E+09, 4.282251517566128E+09, -1.453273488492722E+09,
2461358.500000000, A.D. 2026-Nov-14 00:00:00.0000, 5.192987358335370E+09, 4.284262044723184E+09, -1.453394471671417E+09,
2461365.500000000, A.D. 2026-Nov-21 00:00:00.0000, 5.191392920641812E+09, 4.286271862471381E+09, -1.453515239345391E+09,
2461372.500000000, A.D. 2026-Nov-28 00:00:00.0000, 5.189797751356449E+09, 4.288280971286505E+09, -1.453635791670882E+09,
2461379.500000000, A.D. 2026-Dec-05 00:00:00.0000, 5.188201854095766E+09, 4.290289372299832E+09, -1.453756128650904E+09,
2461386.500000000, A.D. 2026-Dec-12 00:00:00.0000, 5.186605231883548E+09, 4.292297066515394E+09, -1.453876250274296E+09,
2461393.500000000, A.D. 2026-Dec-19 00:00:00.0000, 5.185007887623522E+09, 4.294304054960929E+09, -1.453996156551315E+09,
2461400.500000000, A.D. 2026-Dec-26 00:00:00.0000, 5.183409824145069E+09, 4.296310338904426E+09, -1.454115847503458E+09,
2461407.500000000, A.D. 2027-Jan-02 00:00:00.0000, 5.181811044097591E+09, 4.298315919945258E+09, -1.454235323148223E+09,
2461414.500000000, A.D. 2027-Jan-09 00:00:00.0000, 5.180211549809854E+09, 4.300320799999870E+09, -1.454354583487766E+09,
2461421.500000000, A.D. 2027-Jan-16 00:00:00.0000, 5.178611343148616E+09, 4.302324981190638E+09, -1.454473628503906E+09,
2461428.500000000, A.D. 2027-Jan-23 00:00:00.0000, 5.177010425421097E+09, 4.304328465598063E+09, -1.454592458166909E+09,
2461435.500000000, A.D. 2027-Jan-30 00:00:00.0000, 5.175408797507435E+09, 4.306331254828348E+09, -1.454711072479208E+09,
2461442.500000000, A.D. 2027-Feb-06 00:00:00.0000, 5.173806460646195E+09, 4.308333349736177E+09, -1.454829471565311E+09,
2461449.500000000, A.D. 2027-Feb-13 00:00:00.0000, 5.172203417411097E+09, 4.310334751522319E+09, -1.454947655666151E+09,
2461456.500000000, A.D. 2027-Feb-20 00:00:00.0000, 5.170599670513718E+09, 4.312335463414901E+09, -1.455065624885865E+09,
2461463.500000000, A.D. 2027-Feb-27 00:00:00.0000, 5.168995220827170E+09, 4.314335489720660E+09, -1.455183379081886E+09,
2461470.500000000, A.D. 2027-Mar-06 00:00:00.0000, 5.167390067648236E+09, 4.316334834168724E+09, -1.455300918018223E+09,
2461477.500000000, A.D. 2027-Mar-13 00:00:00.0000, 5.165784209597439E+09, 4.318333499596375E+09, -1.455418241467877E+09,
2461484.500000000, A.D. 2027-Mar-20 00:00:00.0000, 5.164177645027450E+09, 4.320331488142158E+09, -1.455535349229196E+09,
2461491.500000000, A.D. 2027-Mar-27 00:00:00.0000, 5.162570372141823E+09, 4.322328801397391E+09, -1.455652241119693E+09,
2461498.500000000, A.D. 2027-Apr-03 00:00:00.0000, 5.160962389026974E+09, 4.324325440468334E+09, -1.455768916969953E+09,
2461505.500000000, A.D. 2027-Apr-10 00:00:00.0000, 5.159353693658584E+09, 4.326321405972084E+09, -1.455885376621423E+09,
2461512.500000000, A.D. 2027-Apr-17 00:00:00.0000, 5.157744283904572E+09, 4.328316697951883E+09, -1.456001619931354E+09,
2461519.500000000, A.D. 2027-Apr-24 00:00:00.0000, 5.156134157603800E+09, 4.330311315649694E+09, -1.456117646797222E+09,
2461526.500000000, A.D. 2027-May-01 00:00:00.0000, 5.154523313020172E+09, 4.332305257163821E+09, -1.456233457225888E+09,
2461533.500000000, A.D. 2027-May-08 00:00:00.0000, 5.152911749979506E+09, 4.334298519740005E+09, -1.456349051414485E+09,
2461540.500000000, A.D. 2027-May-15 00:00:00.0000, 5.151299470192318E+09, 4.336291101649408E+09, -1.456464429627818E+09,
2461547.500000000, A.D. 2027-May-22 00:00:00.0000, 5.149686475198641E+09, 4.338283003061883E+09, -1.456579591940612E+09,
2461554.500000000, A.D. 2027-May-29 00:00:00.0000, 5.148072765290825E+09, 4.340274224446292E+09, -1.456694538272320E+09,
2461561.500000000, A.D. 2027-Jun-05 00:00:00.0000, 5.146458340299130E+09, 4.342264765629588E+09, -1.456809268539611E+09,
2461568.500000000, A.D. 2027-Jun-12 00:00:00.0000, 5.144843200232619E+09, 4.344254625946501E+09, -1.456923782707031E+09,
2461575.500000000, A.D. 2027-Jun-19 00:00:00.0000, 5.143227345444283E+09, 4.346243804544763E+09, -1.457038080781734E+09,
2461582.500000000, A.D. 2027-Jun-26 00:00:00.0000, 5.141610776599874E+09, 4.348232300584618E+09, -1.457152162799077E+09,
2461589.500000000, A.D. 2027-Jul-03 00:00:00.0000, 5.139993494582509E+09, 4.350220113340855E+09, -1.457266028810333E+09,
2461596.500000000, A.D. 2027-Jul-10 00:00:00.0000, 5.138375500369944E+09, 4.352207242216130E+09, -1.457379678874915E+09,
2461603.500000000, A.D. 2027-Jul-17 00:00:00.0000, 5.136756794920832E+09, 4.354193686626705E+09, -1.457493113063400E+09,
2461610.500000000, A.D. 2027-Jul-24 00:00:00.0000, 5.135137379226401E+09, 4.356179445697778E+09, -1.457606331490567E+09,
2461617.500000000, A.D. 2027-Jul-31 00:00:00.0000, 5.133517254938993E+09, 4.358164518003950E+09, -1.457719334396719E+09,
2461624.500000000, A.D. 2027-Aug-07 00:00:00.0000, 5.131896425376718E+09, 4.360148902506543E+09, -1.457832122164577E+09,
2461631.500000000, A.D. 2027-Aug-14 00:00:00.0000, 5.130274894603133E+09, 4.362132600434444E+09, -1.457944695081273E+09,
2461638.500000000, A.D. 2027-Aug-21 00:00:00.0000, 5.128652665200137E+09, 4.364115614744314E+09, -1.458057053177062E+09,
2461645.500000000, A.D. 2027-Aug-28 00:00:00.0000, 5.127029738165165E+09, 4.366097948363371E+09, -1.458169196357112E+09,
2461652.500000000, A.D. 2027-Sep-04 00:00:00.0000, 5.125406113751521E+09, 4.368079603717052E+09, -1.458281124513683E+09,
2461659.500000000, A.D. 2027-Sep-11 00:00:00.0000, 5.123781791856550E+09, 4.370060582880250E+09, -1.458392837544960E+09,
2461666.500000000, A.D. 2027-Sep-18 00:00:00.0000, 5.122156772090809E+09, 4.372040887702056E+09, -1.458504335346134E+09,
2461673.500000000, A.D. 2027-Sep-25 00:00:00.0000, 5.120531053757129E+09, 4.374020519826601E+09, -1.458615617800325E+09,
2461680.500000000, A.D. 2027-Oct-02 00:00:00.0000, 5.118904635814604E+09, 4.375999480637908E+09, -1.458726684774262E+09,
2461687.500000000, A.D. 2027-Oct-09 00:00:00.0000, 5.117277516850052E+09, 4.377977771124625E+09, -1.458837536121372E+09,
2461694.500000000, A.D. 2027-Oct-16 00:00:00.0000, 5.115649695120190E+09, 4.379955391610202E+09, -1.458948171702806E+09,
2461701.500000000, A.D. 2027-Oct-23 00:00:00.0000, 5.114021168924549E+09, 4.381932341343208E+09, -1.459058591450889E+09,
2461708.500000000, A.D. 2027-Oct-30 00:00:00.0000, 5.112391937683964E+09, 4.383908618558462E+09, -1.459168795459610E+09,
2461715.500000000, A.D. 2027-Nov-06 00:00:00.0000, 5.110762002561325E+09, 4.385884222137399E+09, -1.459278783903370E+09,
2461722.500000000, A.D. 2027-Nov-13 00:00:00.0000, 5.109131364639228E+09, 4.387859152791705E+09, -1.459388556771620E+09,
2461729.500000000, A.D. 2027-Nov-20 00:00:00.0000, 5.107500023556438E+09, 4.389833411584494E+09, -1.459498113864199E+09,
2461736.500000000, A.D. 2027-Nov-27 00:00:00.0000, 5.105867978220773E+09, 4.391806998753622E+09, -1.459607454953431E+09,
2461743.500000000, A.D. 2027-Dec-04 00:00:00.0000, 5.104235227574858E+09, 4.393779913751151E+09, -1.459716579852664E+09,
2461750.500000000, A.D. 2027-Dec-11 00:00:00.0000, 5.102601770864202E+09, 4.395752155535062E+09, -1.459825488419496E+09,
2461757.500000000, A.D. 2027-Dec-18 00:00:00.0000, 5.100967607682539E+09, 4.397723722774220E+09, -1.459934180546512E+09,
2461764.500000000, A.D. 2027-Dec-25 00:00:00.0000, 5.099332737946477E+09, 4.399694613964539E+09, -1.460042656153593E+09,
2461771.500000000, A.D. 2028-Jan-01 00:00:00.0000, 5.097697161840815E+09, 4.401664827471011E+09, -1.460150915184282E+09,
$$EOE